LEMUR-2-ANDIS           
1 42838U 17042P   26068.55941107  .00023598  00000+0  79875-3 0  9998
2 42838  97.3659 249.7950 0009101   4.3248 355.8070 15.30557934473198
STARLINK-36516          
1 67455U 26008L   26068.42242699  .00025226  00000+0  92264-3 0  9995
2 67455  42.9992 206.5347 0002006 299.4788  60.5863 15.27594547  9530
